ONEWEB-0572             
1 55151U 23004M   25341.93238033  .00000092  00000+0  20321-3 0  9993
2 55151  87.9120  43.8990 0001548  96.1428 263.9880 13.17649699142296
ONEWEB-0573             
1 55152U 23004N   25341.82966441  .00001146  00000+0  28728-2 0  9992
2 55152  87.9161  13.4972 0001124  78.1897 281.9361 13.18694342144477
ONEWEB-0588             
1 55153U 23004P   25341.82308660  .00000053  00000+0  10085-3 0  9990
2 55153  87.9173  13.4928 0001339  96.0420 264.0865 13.18684920144473
ONEWEB-0598             
1 55154U 23004Q   25341.96054219  .00000109  00000+0  27177-3 0  9996
2 55154  87.8856  59.1558 0001609  81.2887 278.8423 13.11420123140835
ONEWEB-0599             
1 55155U 23004R   25341.89356514  .00000152  00000+0  35827-3 0  9991
2 55155  87.9110  43.9081 0001844  94.4076 265.7266 13.17650126142295
ONEWEB-0614             
1 55156U 23004S   25341.95545933 -.00000119  00000+0 -37039-3 0  9996
2 55156  87.8858  59.1662 0001510 114.9797 245.1488 13.11420179140772
ONEWEB-0616             
1 55157U 23004T   25341.93575086  .00000155  00000+0  36695-3 0  9992
2 55157  87.9121  43.8913 0002682  92.7455 267.3984 13.17650147142518
ONEWEB-0617             
1 55158U 23004U   25341.94358327 -.00000637  00000+0 -18340-2 0  9994
2 55158  87.8853  59.1482 0001308 109.6863 250.4406 13.11417105140795
ONEWEB-0618             
1 55159U 23004V   25341.79379957  .00014285  00000+0  86241-3 0  9998
2 55159  86.9079 255.2339 0010604 290.4418  69.5681 15.10569227153343
ONEWEB-0619             
1 55160U 23004W   25341.89188227  .00000108  00000+0  24541-3 0  9993
2 55160  87.9121  43.8741 0002071 111.6808 248.4544 13.17649124142409
ONEWEB-0620             
1 55161U 23004X   25341.93851022 -.00001564  00000+0 -44510-2 0  9995
2 55161  87.8850  59.1691 0001417  99.0413 261.0875 13.11407712140760
ONEWEB-0621             
1 55162U 23004Y   25341.73673842  .00000332  00000+0  90169-3 0  9998
2 55162  87.8868  59.1786 0001711 110.6604 249.4708 13.11420381140711
ONEWEB-0622             
1 55163U 23004Z   25341.74184081  .00000555  00000+0  15297-2 0  9997
2 55163  87.8857  59.1870 0001068 127.0712 233.0514 13.11417514140708
ONEWEB-0623             
1 55164U 23004AA  25341.88681177  .00000122  00000+0  28222-3 0  9994
2 55164  87.9109  43.9251 0001613 128.4239 231.7037 13.17652445142391
ONEWEB-0624             
1 55165U 23004AB  25341.83358952  .00000212  00000+0  54911-3 0  9996
2 55165  87.8932  28.6369 0001575 108.1940 251.9361 13.12921098142961
ONEWEB-0625             
1 55166U 23004AC  25341.72481048 -.00000200  00000+0 -54767-3 0  9996
2 55166  87.9110  43.9519 0001910  98.8920 261.2428 13.17649312142367
ONEWEB-0626             
1 55167U 23004AD  25341.94250725  .00000140  00000+0  32664-3 0  9990
2 55167  87.9109  43.9085 0001541  84.0760 276.0547 13.17650023142393
