[{"OBJECT_NAME":"ONEWEB-0572","OBJECT_ID":"2023-004M","EPOCH":"2025-12-07T22:22:37.660512","MEAN_MOTION":13.17649699,"ECCENTRICITY":0.0001548,"INCLINATION":87.912,"RA_OF_ASC_NODE":43.899,"ARG_OF_PERICENTER":96.1428,"MEAN_ANOMALY":263.988,"EPHEMERIS_TYPE":0,"CLASSIFICATION_TYPE":"U","NORAD_CAT_ID":55151,"ELEMENT_SET_NO":999,"REV_AT_EPOCH":14229,"BSTAR":0.00020321467,"MEAN_MOTION_DOT":9.2e-7,"MEAN_MOTION_DDOT":0},{"OBJECT_NAME":"ONEWEB-0573","OBJECT_ID":"2023-004N","EPOCH":"2025-12-07T19:54:43.005024","MEAN_MOTION":13.18694342,"ECCENTRICITY":0.00011245,"INCLINATION":87.9161,"RA_OF_ASC_NODE":13.4972,"ARG_OF_PERICENTER":78.1897,"MEAN_ANOMALY":281.9361,"EPHEMERIS_TYPE":0,"CLASSIFICATION_TYPE":"U","NORAD_CAT_ID":55152,"ELEMENT_SET_NO":999,"REV_AT_EPOCH":14447,"BSTAR":0.0028728049,"MEAN_MOTION_DOT":1.146e-5,"MEAN_MOTION_DDOT":0},{"OBJECT_NAME":"ONEWEB-0588","OBJECT_ID":"2023-004P","EPOCH":"2025-12-07T19:45:14.682240","MEAN_MOTION":13.1868492,"ECCENTRICITY":0.0001339,"INCLINATION":87.9173,"RA_OF_ASC_NODE":13.4928,"ARG_OF_PERICENTER":96.042,"MEAN_ANOMALY":264.0865,"EPHEMERIS_TYPE":0,"CLASSIFICATION_TYPE":"U","NORAD_CAT_ID":55153,"ELEMENT_SET_NO":999,"REV_AT_EPOCH":14447,"BSTAR":0.00010085463,"MEAN_MOTION_DOT":5.3e-7,"MEAN_MOTION_DDOT":0},{"OBJECT_NAME":"ONEWEB-0598","OBJECT_ID":"2023-004Q","EPOCH":"2025-12-07T23:03:10.845216","MEAN_MOTION":13.11420123,"ECCENTRICITY":0.00016098,"INCLINATION":87.8856,"RA_OF_ASC_NODE":59.1558,"ARG_OF_PERICENTER":81.2887,"MEAN_ANOMALY":278.8423,"EPHEMERIS_TYPE":0,"CLASSIFICATION_TYPE":"U","NORAD_CAT_ID":55154,"ELEMENT_SET_NO":999,"REV_AT_EPOCH":14083,"BSTAR":0.0002717714,"MEAN_MOTION_DOT":1.09e-6,"MEAN_MOTION_DDOT":0},{"OBJECT_NAME":"ONEWEB-0599","OBJECT_ID":"2023-004R","EPOCH":"2025-12-07T21:26:44.028096","MEAN_MOTION":13.17650126,"ECCENTRICITY":0.0001844,"INCLINATION":87.911,"RA_OF_ASC_NODE":43.9081,"ARG_OF_PERICENTER":94.4076,"MEAN_ANOMALY":265.7266,"EPHEMERIS_TYPE":0,"CLASSIFICATION_TYPE":"U","NORAD_CAT_ID":55155,"ELEMENT_SET_NO":999,"REV_AT_EPOCH":14229,"BSTAR":0.00035826975,"MEAN_MOTION_DOT":1.52e-6,"MEAN_MOTION_DDOT":0},{"OBJECT_NAME":"ONEWEB-0614","OBJECT_ID":"2023-004S","EPOCH":"2025-12-07T22:55:51.686112","MEAN_MOTION":13.11420179,"ECCENTRICITY":0.000151,"INCLINATION":87.8858,"RA_OF_ASC_NODE":59.1662,"ARG_OF_PERICENTER":114.9797,"MEAN_ANOMALY":245.1488,"EPHEMERIS_TYPE":0,"CLASSIFICATION_TYPE":"U","NORAD_CAT_ID":55156,"ELEMENT_SET_NO":999,"REV_AT_EPOCH":14077,"BSTAR":-0.0003703904,"MEAN_MOTION_DOT":-1.19e-6,"MEAN_MOTION_DDOT":0},{"OBJECT_NAME":"ONEWEB-0616","OBJECT_ID":"2023-004T","EPOCH":"2025-12-07T22:27:28.874304","MEAN_MOTION":13.17650147,"ECCENTRICITY":0.00026825,"INCLINATION":87.9121,"RA_OF_ASC_NODE":43.8913,"ARG_OF_PERICENTER":92.7455,"MEAN_ANOMALY":267.3984,"EPHEMERIS_TYPE":0,"CLASSIFICATION_TYPE":"U","NORAD_CAT_ID":55157,"ELEMENT_SET_NO":999,"REV_AT_EPOCH":14251,"BSTAR":0.00036694747,"MEAN_MOTION_DOT":1.55e-6,"MEAN_MOTION_DDOT":0},{"OBJECT_NAME":"ONEWEB-0617","OBJECT_ID":"2023-004U","EPOCH":"2025-12-07T22:38:45.594528","MEAN_MOTION":13.11417105,"ECCENTRICITY":0.0001308,"INCLINATION":87.8853,"RA_OF_ASC_NODE":59.1482,"ARG_OF_PERICENTER":109.6863,"MEAN_ANOMALY":250.4406,"EPHEMERIS_TYPE":0,"CLASSIFICATION_TYPE":"U","NORAD_CAT_ID":55158,"ELEMENT_SET_NO":999,"REV_AT_EPOCH":14079,"BSTAR":-0.0018340182,"MEAN_MOTION_DOT":-6.37e-6,"MEAN_MOTION_DDOT":0},{"OBJECT_NAME":"ONEWEB-0618","OBJECT_ID":"2023-004V","EPOCH":"2025-12-07T19:03:04.282848","MEAN_MOTION":15.10569227,"ECCENTRICITY":0.00106044,"INCLINATION":86.9079,"RA_OF_ASC_NODE":255.2339,"ARG_OF_PERICENTER":290.4418,"MEAN_ANOMALY":69.5681,"EPHEMERIS_TYPE":0,"CLASSIFICATION_TYPE":"U","NORAD_CAT_ID":55159,"ELEMENT_SET_NO":999,"REV_AT_EPOCH":15334,"BSTAR":0.00086241438,"MEAN_MOTION_DOT":0.00014285,"MEAN_MOTION_DDOT":0},{"OBJECT_NAME":"ONEWEB-0619","OBJECT_ID":"2023-004W","EPOCH":"2025-12-07T21:24:18.628128","MEAN_MOTION":13.17649124,"ECCENTRICITY":0.00020712,"INCLINATION":87.9121,"RA_OF_ASC_NODE":43.8741,"ARG_OF_PERICENTER":111.6808,"MEAN_ANOMALY":248.4544,"EPHEMERIS_TYPE":0,"CLASSIFICATION_TYPE":"U","NORAD_CAT_ID":55160,"ELEMENT_SET_NO":999,"REV_AT_EPOCH":14240,"BSTAR":0.00024540776,"MEAN_MOTION_DOT":1.08e-6,"MEAN_MOTION_DDOT":0},{"OBJECT_NAME":"ONEWEB-0620","OBJECT_ID":"2023-004X","EPOCH":"2025-12-07T22:31:27.283008","MEAN_MOTION":13.11407712,"ECCENTRICITY":0.00014175,"INCLINATION":87.885,"RA_OF_ASC_NODE":59.1691,"ARG_OF_PERICENTER":99.0413,"MEAN_ANOMALY":261.0875,"EPHEMERIS_TYPE":0,"CLASSIFICATION_TYPE":"U","NORAD_CAT_ID":55161,"ELEMENT_SET_NO":999,"REV_AT_EPOCH":14076,"BSTAR":-0.0044510114,"MEAN_MOTION_DOT":-1.564e-5,"MEAN_MOTION_DDOT":0},{"OBJECT_NAME":"ONEWEB-0621","OBJECT_ID":"2023-004Y","EPOCH":"2025-12-07T17:40:54.199488","MEAN_MOTION":13.11420381,"ECCENTRICITY":0.00017117,"INCLINATION":87.8868,"RA_OF_ASC_NODE":59.1786,"ARG_OF_PERICENTER":110.6604,"MEAN_ANOMALY":249.4708,"EPHEMERIS_TYPE":0,"CLASSIFICATION_TYPE":"U","NORAD_CAT_ID":55162,"ELEMENT_SET_NO":999,"REV_AT_EPOCH":14071,"BSTAR":0.0009016949,"MEAN_MOTION_DOT":3.32e-6,"MEAN_MOTION_DDOT":0},{"OBJECT_NAME":"ONEWEB-0622","OBJECT_ID":"2023-004Z","EPOCH":"2025-12-07T17:48:15.045984","MEAN_MOTION":13.11417514,"ECCENTRICITY":0.00010682,"INCLINATION":87.8857,"RA_OF_ASC_NODE":59.187,"ARG_OF_PERICENTER":127.0712,"MEAN_ANOMALY":233.0514,"EPHEMERIS_TYPE":0,"CLASSIFICATION_TYPE":"U","NORAD_CAT_ID":55163,"ELEMENT_SET_NO":999,"REV_AT_EPOCH":14070,"BSTAR":0.001529731,"MEAN_MOTION_DOT":5.55e-6,"MEAN_MOTION_DDOT":0},{"OBJECT_NAME":"ONEWEB-0623","OBJECT_ID":"2023-004AA","EPOCH":"2025-12-07T21:17:00.536928","MEAN_MOTION":13.17652445,"ECCENTRICITY":0.00016136,"INCLINATION":87.9109,"RA_OF_ASC_NODE":43.9251,"ARG_OF_PERICENTER":128.4239,"MEAN_ANOMALY":231.7037,"EPHEMERIS_TYPE":0,"CLASSIFICATION_TYPE":"U","NORAD_CAT_ID":55164,"ELEMENT_SET_NO":999,"REV_AT_EPOCH":14239,"BSTAR":0.00028222088,"MEAN_MOTION_DOT":1.22e-6,"MEAN_MOTION_DDOT":0},{"OBJECT_NAME":"ONEWEB-0624","OBJECT_ID":"2023-004AB","EPOCH":"2025-12-07T20:00:22.134528","MEAN_MOTION":13.12921098,"ECCENTRICITY":0.00015758,"INCLINATION":87.8932,"RA_OF_ASC_NODE":28.6369,"ARG_OF_PERICENTER":108.194,"MEAN_ANOMALY":251.9361,"EPHEMERIS_TYPE":0,"CLASSIFICATION_TYPE":"U","NORAD_CAT_ID":55165,"ELEMENT_SET_NO":999,"REV_AT_EPOCH":14296,"BSTAR":0.0005491053,"MEAN_MOTION_DOT":2.12e-6,"MEAN_MOTION_DDOT":0},{"OBJECT_NAME":"ONEWEB-0625","OBJECT_ID":"2023-004AC","EPOCH":"2025-12-07T17:23:43.625472","MEAN_MOTION":13.17649312,"ECCENTRICITY":0.00019108,"INCLINATION":87.911,"RA_OF_ASC_NODE":43.9519,"ARG_OF_PERICENTER":98.892,"MEAN_ANOMALY":261.2428,"EPHEMERIS_TYPE":0,"CLASSIFICATION_TYPE":"U","NORAD_CAT_ID":55166,"ELEMENT_SET_NO":999,"REV_AT_EPOCH":14236,"BSTAR":-0.00054767421,"MEAN_MOTION_DOT":-2.0e-6,"MEAN_MOTION_DDOT":0},{"OBJECT_NAME":"ONEWEB-0626","OBJECT_ID":"2023-004AD","EPOCH":"2025-12-07T22:37:12.626400","MEAN_MOTION":13.17650023,"ECCENTRICITY":0.0001541,"INCLINATION":87.9109,"RA_OF_ASC_NODE":43.9085,"ARG_OF_PERICENTER":84.076,"MEAN_ANOMALY":276.0547,"EPHEMERIS_TYPE":0,"CLASSIFICATION_TYPE":"U","NORAD_CAT_ID":55167,"ELEMENT_SET_NO":999,"REV_AT_EPOCH":14239,"BSTAR":0.00032663537,"MEAN_MOTION_DOT":1.4e-6,"MEAN_MOTION_DDOT":0}]
